[{"OBJECT_NAME":"STARLINK-1683","OBJECT_ID":"2020-070AY","EPOCH":"2026-03-10T00:00:02.999808","MEAN_MOTION":15.80836783,"ECCENTRICITY":0.00071266,"INCLINATION":53.0104,"RA_OF_ASC_NODE":69.9116,"ARG_OF_PERICENTER":22.2576,"MEAN_ANOMALY":140.1673,"EPHEMERIS_TYPE":0,"CLASSIFICATION_TYPE":"U","NORAD_CAT_ID":46578,"ELEMENT_SET_NO":999,"REV_AT_EPOCH":592,"BSTAR":0.0011834415,"MEAN_MOTION_DOT":0.00239404,"MEAN_MOTION_DDOT":0},{"OBJECT_NAME":"STARLINK-36570","OBJECT_ID":"2026-020Z","EPOCH":"2026-03-08T13:55:50.947392","MEAN_MOTION":15.76463592,"ECCENTRICITY":0.00018309,"INCLINATION":42.9991,"RA_OF_ASC_NODE":148.6836,"ARG_OF_PERICENTER":285.4802,"MEAN_ANOMALY":74.5865,"EPHEMERIS_TYPE":0,"CLASSIFICATION_TYPE":"U","NORAD_CAT_ID":67640,"ELEMENT_SET_NO":999,"REV_AT_EPOCH":591,"BSTAR":0.0021568895,"MEAN_MOTION_DOT":0.00368006,"MEAN_MOTION_DDOT":0}]
